[{"OBJECT_NAME":"STARLINK-31392","OBJECT_ID":"2024-073V","EPOCH":"2026-03-09T10:02:54.342528","MEAN_MOTION":15.27568337,"ECCENTRICITY":0.00020571,"INCLINATION":43.0053,"RA_OF_ASC_NODE":319.5899,"ARG_OF_PERICENTER":264.0165,"MEAN_ANOMALY":96.0453,"EPHEMERIS_TYPE":0,"CLASSIFICATION_TYPE":"U","NORAD_CAT_ID":59530,"ELEMENT_SET_NO":999,"REV_AT_EPOCH":10613,"BSTAR":-6.132404e-5,"MEAN_MOTION_DOT":-1.949e-5,"MEAN_MOTION_DDOT":0},{"OBJECT_NAME":"SIMSAT 1","OBJECT_ID":"2000-026A","EPOCH":"2026-03-09T17:22:54.646176","MEAN_MOTION":15.27666538,"ECCENTRICITY":0.00084816,"INCLINATION":86.3501,"RA_OF_ASC_NODE":180.5413,"ARG_OF_PERICENTER":14.8337,"MEAN_ANOMALY":345.3157,"EPHEMERIS_TYPE":0,"CLASSIFICATION_TYPE":"U","NORAD_CAT_ID":26365,"ELEMENT_SET_NO":999,"REV_AT_EPOCH":42720,"BSTAR":0.00013499313,"MEAN_MOTION_DOT":3.69e-5,"MEAN_MOTION_DDOT":0}]
